NORAD_CAT_ID,OBJECT_NAME,OBJECT_TYPE,EPOCH,MEAN_MOTION,ECCENTRICITY,INCLINATION,RA_OF_ASC_NODE,ARG_OF_PERICENTER,MEAN_ANOMALY,BSTAR,MEAN_MOTION_DOT,MEAN_MOTION_DDOT,TLE_LINE0,TLE_LINE1,TLE_LINE2,SEMIMAJOR_AXIS,PERIOD,APOGEE,PERIGEE,DECAYED
51795.0,STARLINK-3586,PAYLOAD,2024-04-29 10:10:07,15.08842792,0.0001456,53.2165,158.6602,93.2172,266.8987,8.3742e-05,1.045e-05,0.0,0 STARLINK-3586,1 51795U 22017AD  24120.42370193  .00001045  00000-0  83742-4 0  9995,2 51795  53.2165 158.6602 0001456  93.2172 266.8987 15.08842792121375,6917.872,95.437,540.744,538.73,0.0
51795.0,STARLINK-3586,PAYLOAD,2024-04-29 19:42:26,15.08841702,0.0001499,53.217,156.874,89.0404,271.076,0.00011745,1.582e-05,0.0,0 STARLINK-3586,1 51795U 22017AD  24120.82114133  .00001582  00000-0  11745-3 0  9998,2 51795  53.2170 156.8740 0001499  89.0404 271.0760 15.08841702121436,6917.875,95.437,540.777,538.703,0.0
51795.0,STARLINK-3586,PAYLOAD,2024-04-30 08:25:31,15.08841366,0.0001403,53.2159,154.4943,91.7737,268.3416,0.00020245,2.936e-05,0.0,0 STARLINK-3586,1 51795U 22017AD  24121.35105968  .00002936  00000-0  20245-3 0  9992,2 51795  53.2159 154.4943 0001403  91.7737 268.3416 15.08841366121518,6917.876,95.437,540.712,538.771,0.0
51795.0,STARLINK-3586,PAYLOAD,2024-04-30 19:33:13,15.08843406,0.0001301,53.2151,152.4119,92.1056,268.0085,9.6341e-05,1.246e-05,0.0,0 STARLINK-3586,1 51795U 22017AD  24121.81474014  .00001246  00000-0  96341-4 0  9998,2 51795  53.2151 152.4119 0001301  92.1056 268.0085 15.08843406121582,6917.87,95.437,540.635,538.835,0.0
51795.0,STARLINK-3586,PAYLOAD,2024-05-01 11:27:04,15.08846275,0.0001364,53.2153,149.4372,93.9431,266.1717,4.0251e-05,3.53e-06,0.0,0 STARLINK-3586,1 51795U 22017AD  24122.47713755  .00000353  00000-0  40251-4 0  9996,2 51795  53.2153 149.4372 0001364  93.9431 266.1717 15.08846275121685,6917.861,95.437,540.67,538.783,0.0
51795.0,STARLINK-3586,PAYLOAD,2024-05-02 11:17:51,15.08843122,0.0001401,53.2151,144.9759,96.5652,263.55,2.5494e-05,1.18e-06,0.0,0 STARLINK-3586,1 51795U 22017AD  24123.47073584  .00000118  00000-0  25494-4 0  9997,2 51795  53.2151 144.9759 0001401  96.5652 263.5500 15.08843122121834,6917.871,95.437,540.705,538.767,0.0
51795.0,STARLINK-3586,PAYLOAD,2024-05-03 04:47:06,15.08841429,0.00014,53.215,141.7057,86.6146,273.5007,4.9918e-05,5.07e-06,0.0,0 STARLINK-3586,1 51795U 22017AD  24124.19937552  .00000507  00000-0  49918-4 0  9990,2 51795  53.2150 141.7057 0001400  86.6146 273.5007 15.08841429121949,6917.876,95.437,540.71,538.773,0.0
51795.0,STARLINK-3586,PAYLOAD,2024-05-03 07:57:52,15.08843739,0.0001386,53.2149,141.1104,89.6436,270.4715,6.8763e-05,8.07e-06,0.0,0 STARLINK-3586,1 51795U 22017AD  24124.33185316  .00000807  00000-0  68763-4 0  9991,2 51795  53.2149 141.1104 0001386  89.6436 270.4715 15.08843739121962,6917.869,95.437,540.693,538.775,0.0
51795.0,STARLINK-3586,PAYLOAD,2024-05-03 17:30:11,15.08836774,0.0001277,53.2145,139.3258,85.3526,274.7612,-1.8834e-06,-3.18e-06,0.0,0 STARLINK-3586,1 51795U 22017AD  24124.72929931 -.00000318  00000-0 -18834-5 0  9997,2 51795  53.2145 139.3258 0001277  85.3526 274.7612 15.08836774122021,6917.89,95.438,540.639,538.872,0.0
51795.0,STARLINK-3586,PAYLOAD,2024-05-04 04:37:54,15.0882751,0.0001379,53.2149,137.2466,92.1404,267.9746,-5.5867e-05,-1.177e-05,0.0,0 STARLINK-3586,1 51795U 22017AD  24125.19298922 -.00001177  00000-0 -55867-4 0  9998,2 51795  53.2149 137.2466 0001379  92.1404 267.9746 15.08827510122094,6917.919,95.438,540.738,538.83,0.0
51795.0,STARLINK-3586,PAYLOAD,2024-05-05 04:28:41,15.08833987,0.0001382,53.2159,132.7864,102.1525,257.9622,2.9511e-06,-2.41e-06,0.0,0 STARLINK-3586,1 51795U 22017AD  24126.18658890 -.00000241  00000-0  29511-5 0  9990,2 51795  53.2159 132.7864 0001382 102.1525 257.9622 15.08833987122241,6917.899,95.438,540.72,538.808,0.0
51795.0,STARLINK-3586,PAYLOAD,2024-05-05 10:50:13,15.08834886,0.0001381,53.216,131.597,101.9798,258.1349,1.1608e-05,-1.03e-06,0.0,0 STARLINK-3586,1 51795U 22017AD  24126.45154915 -.00000103  00000-0  11608-4 0  9993,2 51795  53.2160 131.5970 0001381 101.9798 258.1349 15.08834886122288,6917.896,95.438,540.716,538.806,0.0
51795.0,STARLINK-3586,PAYLOAD,2024-05-06 09:05:37,15.08838812,0.00013,53.216,127.4331,99.0529,261.061,0.00015505,2.181e-05,0.0,0 STARLINK-3586,1 51795U 22017AD  24127.37890608  .00002181  00000-0  15505-3 0  9997,2 51795  53.2160 127.4331 0001300  99.0529 261.0610 15.08838812122426,6917.884,95.438,540.648,538.85,0.0
51795.0,STARLINK-3586,PAYLOAD,2024-05-07 07:21:00,15.08849641,0.0001322,53.2163,123.2708,102.699,257.4149,0.00013425,1.85e-05,0.0,0 STARLINK-3586,1 51795U 22017AD  24128.30625953  .00001850  00000-0  13425-3 0  9991,2 51795  53.2163 123.2708 0001322 102.6990 257.4149 15.08849641122561,6917.851,95.437,540.63,538.801,0.0
51795.0,STARLINK-3586,PAYLOAD,2024-05-07 16:53:20,15.08841874,0.0001532,53.2171,121.4863,78.5065,281.6099,4.9336e-05,4.97e-06,0.0,0 STARLINK-3586,1 51795U 22017AD  24128.70370740  .00000497  00000-0  49336-4 0  9993,2 51795  53.2171 121.4863 0001532  78.5065 281.6099 15.08841874122629,6917.875,95.437,540.799,538.68,0.0
51795.0,STARLINK-3586,PAYLOAD,2024-05-08 05:36:25,15.08838539,0.0001391,53.2162,119.1059,88.6936,271.4215,-4.05e-05,-9.32e-06,0.0,0 STARLINK-3586,1 51795U 22017AD  24129.23363153 -.00000932  00000-0 -40500-4 0  9992,2 51795  53.2162 119.1059 0001391  88.6936 271.4215 15.08838539122702,6917.885,95.438,540.712,538.788,0.0
51795.0,STARLINK-3586,PAYLOAD,2024-05-08 23:05:39,15.08845424,0.0001451,53.2169,115.8339,94.2394,265.8764,-3.6581e-05,-8.7e-06,0.0,0 STARLINK-3586,1 51795U 22017AD  24129.96226577 -.00000870  00000-0 -36581-4 0  9995,2 51795  53.2169 115.8339 0001451  94.2394 265.8764 15.08845424122810,6917.864,95.437,540.733,538.725,0.0
51795.0,STARLINK-3586,PAYLOAD,2024-05-09 08:37:59,15.08833954,0.0001251,53.2171,114.0511,90.4852,269.6283,-0.00011527,-2.122e-05,0.0,0 STARLINK-3586,1 51795U 22017AD  24130.35971644 -.00002122  00000-0 -11527-3 0  9996,2 51795  53.2171 114.0511 0001251  90.4852 269.6283 15.08833954122870,6917.899,95.438,540.629,538.898,0.0
51795.0,STARLINK-3586,PAYLOAD,2024-05-10 05:17:59,15.08838834,0.0001333,53.2171,110.1842,86.1947,273.9197,0.00012206,1.655e-05,0.0,0 STARLINK-3586,1 51795U 22017AD  24131.22083097  .00001655  00000-0  12206-3 0  9992,2 51795  53.2171 110.1842 0001333  86.1947 273.9197 15.08838834123002,6917.884,95.438,540.671,538.827,0.0
51795.0,STARLINK-3586,PAYLOAD,2024-05-10 08:28:45,15.08842355,0.0001315,53.2168,109.5889,85.2924,274.8218,0.00011888,1.605e-05,0.0,0 STARLINK-3586,1 51795U 22017AD  24131.35330898  .00001605  00000-0  11888-3 0  9990,2 51795  53.2168 109.5889 0001315  85.2924 274.8218 15.08842355123025,6917.873,95.437,540.648,538.828,0.0
51795.0,STARLINK-3586,PAYLOAD,2024-05-11 05:08:44,15.08866148,0.0001375,53.2168,105.723,90.7968,269.3182,0.00041561,6.337e-05,0.0,0 STARLINK-3586,1 51795U 22017AD  24132.21440784  .00006337  00000-0  41561-3 0  9990,2 51795  53.2168 105.7230 0001375  90.7968 269.3182 15.08866148123157,6917.8,95.436,540.617,538.714,0.0
51795.0,STARLINK-3586,PAYLOAD,2024-05-11 14:41:02,15.08877391,0.0001368,53.2173,103.9392,87.3285,272.7863,0.00045574,6.98e-05,0.0,0 STARLINK-3586,1 51795U 22017AD  24132.61183419  .00006980  00000-0  45574-3 0  9995,2 51795  53.2173 103.9392 0001368  87.3285 272.7863 15.08877391123211,6917.766,95.435,540.577,538.685,0.0
51795.0,STARLINK-3586,PAYLOAD,2024-05-11 22:37:59,15.08859385,0.000174,53.2164,102.4516,86.2719,273.8472,8.2935e-05,1.033e-05,0.0,0 STARLINK-3586,1 51795U 22017AD  24132.94305067  .00001033  00000-0  82935-4 0  9993,2 51795  53.2164 102.4516 0001740  86.2719 273.8472 15.08859385123263,6917.821,95.436,540.89,538.482,0.0
51795.0,STARLINK-3586,PAYLOAD,2024-05-12 04:59:34,15.08803539,0.0001394,53.2158,101.2634,73.167,286.9474,-0.00068209,-0.00011116,0.0,0 STARLINK-3586,1 51795U 22017AD  24133.20804169 -.00011116  00000-0 -68209-3 0  9992,2 51795  53.2158 101.2634 0001394  73.1670 286.9474 15.08803539123302,6917.992,95.44,540.821,538.892,0.0
51795.0,STARLINK-3586,PAYLOAD,2024-05-12 14:31:54,15.08791402,0.0001388,53.215,99.4794,73.2822,286.8322,-0.00074927,-0.00012177,0.0,0 STARLINK-3586,1 51795U 22017AD  24133.60549538 -.00012177  00000-0 -74927-3 0  9994,2 51795  53.2150  99.4794 0001388  73.2822 286.8322 15.08791402123364,6918.029,95.441,540.854,538.934,0.0
51795.0,STARLINK-3586,PAYLOAD,2024-05-13 04:50:21,15.08841108,0.0001335,53.2162,96.8048,96.3009,263.8136,-0.00015279,-2.719e-05,0.0,0 STARLINK-3586,1 51795U 22017AD  24134.20163944 -.00002719  00000-0 -15279-3 0  9990,2 51795  53.2162  96.8048 0001335  96.3009 263.8136 15.08841108123452,6917.877,95.437,540.666,538.818,0.0
51795.0,STARLINK-3586,PAYLOAD,2024-05-13 06:25:44,15.08841941,0.0001413,53.2162,96.507,104.846,255.2689,-0.00011234,-2.075e-05,0.0,0 STARLINK-3586,1 51795U 22017AD  24134.26787981 -.00002075  00000-0 -11234-3 0  9991,2 51795  53.2162  96.5070 0001413 104.8460 255.2689 15.08841941123461,6917.874,95.437,540.717,538.762,0.0
51795.0,STARLINK-3586,PAYLOAD,2024-05-13 14:22:40,15.08843911,0.0001335,53.2165,95.0199,97.4882,262.6262,1.9792e-05,2.7e-07,0.0,0 STARLINK-3586,1 51795U 22017AD  24134.59907957  .00000027  00000-0  19792-4 0  9995,2 51795  53.2165  95.0199 0001335  97.4882 262.6262 15.08843911123512,6917.868,95.437,540.657,538.81,0.0
51795.0,STARLINK-3586,PAYLOAD,2024-05-14 04:41:08,15.08824366,0.0001237,53.2163,92.3429,85.9055,274.2079,0.00057726,8.907e-05,0.0,0 STARLINK-3586,1 51795U 22017AD  24135.19524004  .00008907  00000-0  57726-3 0  9993,2 51795  53.2163  92.3429 0001237  85.9055 274.2079 15.08824366123609,6917.928,95.439,540.649,538.937,0.0
51795.0,STARLINK-3586,PAYLOAD,2024-05-14 14:13:27,15.08828646,0.000122,53.2165,90.5585,87.0159,273.0973,0.00058204,8.985e-05,0.0,0 STARLINK-3586,1 51795U 22017AD  24135.59268389  .00008985  00000-0  58204-3 0  9996,2 51795  53.2165  90.5585 0001220  87.0159 273.0973 15.08828646123665,6917.915,95.438,540.624,538.936,0.0
